ION SCV-014             
1 62630U 25009X   26068.71776957  .00001812  00000+0  13229-3 0  9995
2 62630  97.4923 144.8636 0006450 112.6479 247.5430 15.04884649 63025
STARLINK-35373          
1 65792U 25218B   26068.57830016  .00005380  00000+0  37681-3 0  9992
2 65792  97.6024 292.8543 0001465  87.2686 272.8709 15.05649987 24954
